GLOBALSTAR M057         
1 25943U 99058A   24155.45511758 -.00000123  00000+0 -27229-3 0  9999
2 25943  52.0006 343.0074 0001532 329.6310  30.4451 12.24787335120523
GLOBALSTAR M059         
1 25944U 99058B   24155.44519479 -.00000056  00000+0  37494-3 0  9996
2 25944  51.9987 151.7761 0000643 292.9836 234.0609 11.99962705528575
GLOBALSTAR M056         
1 25945U 99058C   24155.46336838 -.00000042  00000+0  52607-3 0  9993
2 25945  51.9931 163.4123 0000723 153.3633  13.5976 12.04776427116976
GLOBALSTAR M034         
1 25962U 99062B   24155.62094050 -.00000119  00000+0 -61055-3 0  9995
2 25962  51.9881 275.4252 0013959  49.2976 325.9553 11.79428543 93726
GLOBALSTAR M029         
1 25963U 99062C   24155.42960071 -.00000072  00000+0  17406-3 0  9997
2 25963  51.9823  40.1793 0003242  86.9426  84.5563 11.99878702123655
GLOBALSTAR M061         
1 25964U 99062D   24155.56750253 -.00000133  00000+0 -87340-3 0  9995
2 25964  51.9794  94.5784 0006408 336.5675 194.2924 11.76761955 76601
